{"type": "FeatureCollection", "features": [ {"type": "Feature", "properties": {"norad_id": 35038, "name": "COSMOS 2251 DEB", "group": "cosmos-2251-debris", "lat": -55.77834417598946, "lon": -116.01259379713815, "alt_km": 879.9004420399078, "timestamp": "2025-12-14T14:39:29.764975+00:00", "meta": {"OBJECT_NAME": "COSMOS 2251 DEB", "OBJECT_ID": "1993-036AHB", "EPOCH": "2025-12-13T21:31:00.007104", "MEAN_MOTION": 14.25157487, "ECCENTRICITY": 0.01139297, "INCLINATION": 74.1077, "RA_OF_ASC_NODE": 40.5066, "ARG_OF_PERICENTER": 23.9273, "MEAN_ANOMALY": 153.1252, "EPHEMERIS_TYPE": 0, "CLASSIFICATION_TYPE": "U", "NORAD_CAT_ID": 35038, "ELEMENT_SET_NO": 999, "REV_AT_EPOCH": 85585, "BSTAR": 0.0014433566, "MEAN_MOTION_DOT": 3.603e-05, "MEAN_MOTION_DDOT": 0}, "tle": {"line1": "1 35038U 93036AHB 25347.89652786  .00003603  00000+0  14434-2 0  9991", "line2": "2 35038  74.1077  40.5066 0113929  23.9273 153.1252 14.25157487855853"}}, "geometry": {"type": "Point", "coordinates": [-116.01259379713815, -55.77834417598946]}}, {"type": "Feature", "properties": {"norad_id": 35043, "name": "COSMOS 2251 DEB", "group": "cosmos-2251-debris", "lat": 63.62749927236281, "lon": 77.38376105906963, "alt_km": 699.40730366758, "timestamp": "2025-12-14T14:39:29.764985+00:00", "meta": {"OBJECT_NAME": "COSMOS 2251 DEB", "OBJECT_ID": "1993-036AHG", "EPOCH": "2025-12-12T10:19:31.767456", "MEAN_MOTION": 14.76940501, "ECCENTRICITY": 0.00964725, "INCLINATION": 73.9505, "RA_OF_ASC_NODE": 46.1859, "ARG_OF_PERICENTER": 255.5688, "MEAN_ANOMALY": 103.4766, "EPHEMERIS_TYPE": 0, "CLASSIFICATION_TYPE": "U", "NORAD_CAT_ID": 35043, "ELEMENT_SET_NO": 999, "REV_AT_EPOCH": 67414, "BSTAR": 0.0053994821, "MEAN_MOTION_DOT": 0.00041249, "MEAN_MOTION_DDOT": 0}, "tle": {"line1": "1 35043U 93036AHG 25346.43022879  .00041249  00000+0  53995-2 0  9993", "line2": "2 35043  73.9505  46.1859 0096472 255.5688 103.4766 14.76940501674142"}}, "geometry": {"type": "Point", "coordinates": [77.38376105906963, 63.62749927236281]}}, {"type": "Feature", "properties": {"norad_id": 35045, "name": "COSMOS 2251 DEB", "group": "cosmos-2251-debris", "lat": 70.98580361773155, "lon": 171.40389857981734, "alt_km": 1016.0783599509259, "timestamp": "2025-12-14T14:39:29.764995+00:00", "meta": {"OBJECT_NAME": "COSMOS 2251 DEB", "OBJECT_ID": "1993-036AHJ", "EPOCH": "2025-12-12T12:27:23.258016", "MEAN_MOTION": 14.00384321, "ECCENTRICITY": 0.01836, "INCLINATION": 73.7196, "RA_OF_ASC_NODE": 53.0934, "ARG_OF_PERICENTER": 295.1287, "MEAN_ANOMALY": 63.0895, "EPHEMERIS_TYPE": 0, "CLASSIFICATION_TYPE": "U", "NORAD_CAT_ID": 35045, "ELEMENT_SET_NO": 999, "REV_AT_EPOCH": 84640, "BSTAR": 0.00096523988, "MEAN_MOTION_DOT": 1.627e-05, "MEAN_MOTION_DDOT": 0}, "tle": {"line1": "1 35045U 93036AHJ 25346.51901919  .00001627  00000+0  96524-3 0  9997", "line2": "2 35045  73.7196  53.0934 0183600 295.1287  63.0895 14.00384321846407"}}, "geometry": {"type": "Point", "coordinates": [171.40389857981734, 70.98580361773155]}}, {"type": "Feature", "properties": {"norad_id": 35060, "name": "COSMOS 2251 DEB", "group": "cosmos-2251-debris", "lat": -69.17723553805699, "lon": -167.954673598893, "alt_km": 750.4669780063332, "timestamp": "2025-12-14T14:39:29.765004+00:00", "meta": {"OBJECT_NAME": "COSMOS 2251 DEB", "OBJECT_ID": "1993-036AHP", "EPOCH": "2025-12-12T09:42:56.373696", "MEAN_MOTION": 14.4159863, "ECCENTRICITY": 0.00185395, "INCLINATION": 74.0367, "RA_OF_ASC_NODE": 244.9485, "ARG_OF_PERICENTER": 331.3845, "MEAN_ANOMALY": 28.6291, "EPHEMERIS_TYPE": 0, "CLASSIFICATION_TYPE": "U", "NORAD_CAT_ID": 35060, "ELEMENT_SET_NO": 999, "REV_AT_EPOCH": 87237, "BSTAR": 0.00047553365, "MEAN_MOTION_DOT": 1.524e-05, "MEAN_MOTION_DDOT": 0}, "tle": {"line1": "1 35060U 93036AHP 25346.40481914  .00001524  00000+0  47553-3 0  9994", "line2": "2 35060  74.0367 244.9485 0018539 331.3845  28.6291 14.41598630872378"}}, "geometry": {"type": "Point", "coordinates": [-167.954673598893, -69.17723553805699]}}, {"type": "Feature", "properties": {"norad_id": 35061, "name": "COSMOS 2251 DEB", "group": "cosmos-2251-debris", "lat": -15.456790230708327, "lon": -62.42483276178082, "alt_km": 662.1539663062567, "timestamp": "2025-12-14T14:39:29.765014+00:00", "meta": {"OBJECT_NAME": "COSMOS 2251 DEB", "OBJECT_ID": "1993-036AHQ", "EPOCH": "2025-12-12T15:17:41.757504", "MEAN_MOTION": 14.67826183, "ECCENTRICITY": 0.00390968, "INCLINATION": 74.0459, "RA_OF_ASC_NODE": 305.9213, "ARG_OF_PERICENTER": 56.8247, "MEAN_ANOMALY": 303.6662, "EPHEMERIS_TYPE": 0, "CLASSIFICATION_TYPE": "U", "NORAD_CAT_ID": 35061, "ELEMENT_SET_NO": 999, "REV_AT_EPOCH": 88573, "BSTAR": 0.0012039326, "MEAN_MOTION_DOT": 6.928e-05, "MEAN_MOTION_DDOT": 0}, "tle": {"line1": "1 35061U 93036AHQ 25346.63728886  .00006928  00000+0  12039-2 0  9995", "line2": "2 35061  74.0459 305.9213 0039096  56.8247 303.6662 14.67826183885731"}}, "geometry": {"type": "Point", "coordinates": [-62.42483276178082, -15.456790230708327]}}, {"type": "Feature", "properties": {"norad_id": 35062, "name": "COSMOS 2251 DEB", "group": "cosmos-2251-debris", "lat": 71.77788418052178, "lon": -150.22612903937627, "alt_km": 717.6132553116686, "timestamp": "2025-12-14T14:39:29.765024+00:00", "meta": {"OBJECT_NAME": "COSMOS 2251 DEB", "OBJECT_ID": "1993-036AHR", "EPOCH": "2025-12-10T15:42:45.436320", "MEAN_MOTION": 14.22906612, "ECCENTRICITY": 0.01275957, "INCLINATION": 74.0784, "RA_OF_ASC_NODE": 96.9836, "ARG_OF_PERICENTER": 97.3041, "MEAN_ANOMALY": 264.2628, "EPHEMERIS_TYPE": 0, "CLASSIFICATION_TYPE": "U", "NORAD_CAT_ID": 35062, "ELEMENT_SET_NO": 999, "REV_AT_EPOCH": 85469, "BSTAR": 0.0028656551, "MEAN_MOTION_DOT": 6.986e-05, "MEAN_MOTION_DDOT": 0}, "tle": {"line1": "1 35062U 93036AHR 25344.65469255  .00006986  00000+0  28657-2 0  9995", "line2": "2 35062  74.0784  96.9836 0127595  97.3041 264.2628 14.22906612854697"}}, "geometry": {"type": "Point", "coordinates": [-150.22612903937627, 71.77788418052178]}}, {"type": "Feature", "properties": {"norad_id": 35065, "name": "COSMOS 2251 DEB", "group": "cosmos-2251-debris", "lat": -57.19263007703989, "lon": 164.4492710856272, "alt_km": 732.731269836253, "timestamp": "2025-12-14T14:39:29.765034+00:00", "meta": {"OBJECT_NAME": "COSMOS 2251 DEB", "OBJECT_ID": "1993-036AHU", "EPOCH": "2025-12-13T20:40:14.509920", "MEAN_MOTION": 14.45730422, "ECCENTRICITY": 0.00199267, "INCLINATION": 74.0191, "RA_OF_ASC_NODE": 192.2422, "ARG_OF_PERICENTER": 316.9776, "MEAN_ANOMALY": 42.9823, "EPHEMERIS_TYPE": 0, "CLASSIFICATION_TYPE": "U", "NORAD_CAT_ID": 35065, "ELEMENT_SET_NO": 999, "REV_AT_EPOCH": 68367, "BSTAR": 0.00054047431, "MEAN_MOTION_DOT": 1.893e-05, "MEAN_MOTION_DDOT": 0}, "tle": {"line1": "1 35065U 93036AHU 25347.86127905  .00001893  00000+0  54047-3 0  9992", "line2": "2 35065  74.0191 192.2422 0019926 316.9776  42.9823 14.45730422683671"}}, "geometry": {"type": "Point", "coordinates": [164.4492710856272, -57.19263007703989]}}, {"type": "Feature", "properties": {"norad_id": 35071, "name": "COSMOS 2251 DEB", "group": "cosmos-2251-debris", "lat": -7.852267026069564, "lon": -8.13171601725992, "alt_km": 584.9628532520792, "timestamp": "2025-12-14T14:39:29.765044+00:00", "meta": {"OBJECT_NAME": "COSMOS 2251 DEB", "OBJECT_ID": "1993-036AJA", "EPOCH": "2025-12-13T18:40:02.104896", "MEAN_MOTION": 15.03486526, "ECCENTRICITY": 0.00683693, "INCLINATION": 73.9316, "RA_OF_ASC_NODE": 171.3024, "ARG_OF_PERICENTER": 67.4936, "MEAN_ANOMALY": 293.3471, "EPHEMERIS_TYPE": 0, "CLASSIFICATION_TYPE": "U", "NORAD_CAT_ID": 35071, "ELEMENT_SET_NO": 999, "REV_AT_EPOCH": 67552, "BSTAR": 0.00086245782, "MEAN_MOTION_DOT": 0.00012355, "MEAN_MOTION_DDOT": 0}, "tle": {"line1": "1 35071U 93036AJA 25347.77780214  .00012355  00000+0  86246-3 0  9998", "line2": "2 35071  73.9316 171.3024 0068369  67.4936 293.3471 15.03486526675526"}}, "geometry": {"type": "Point", "coordinates": [-8.13171601725992, -7.852267026069564]}}, {"type": "Feature", "properties": {"norad_id": 35073, "name": "COSMOS 2251 DEB", "group": "cosmos-2251-debris", "lat": -72.81286577623851, "lon": -101.29523400537138, "alt_km": 577.7927558398342, "timestamp": "2025-12-14T14:39:29.765054+00:00", "meta": {"OBJECT_NAME": "COSMOS 2251 DEB", "OBJECT_ID": "1993-036AJC", "EPOCH": "2025-12-13T05:26:02.718240", "MEAN_MOTION": 15.00701135, "ECCENTRICITY": 0.00108653, "INCLINATION": 74.0021, "RA_OF_ASC_NODE": 329.5852, "ARG_OF_PERICENTER": 71.2745, "MEAN_ANOMALY": 288.962, "EPHEMERIS_TYPE": 0, "CLASSIFICATION_TYPE": "U", "NORAD_CAT_ID": 35073, "ELEMENT_SET_NO": 999, "REV_AT_EPOCH": 67486, "BSTAR": 0.0048254201, "MEAN_MOTION_DOT": 0.00061712, "MEAN_MOTION_DDOT": 0}, "tle": {"line1": "1 35073U 93036AJC 25347.22642035  .00061712  00000+0  48254-2 0  9995", "line2": "2 35073  74.0021 329.5852 0010865  71.2745 288.9620 15.00701135674863"}}, "geometry": {"type": "Point", "coordinates": [-101.29523400537138, -72.81286577623851]}}, {"type": "Feature", "properties": {"norad_id": 35284, "name": "COSMOS 2251 DEB", "group": "cosmos-2251-debris", "lat": -53.417488111172275, "lon": -121.68612903007639, "alt_km": 760.6847486904398, "timestamp": "2025-12-14T14:39:29.765064+00:00", "meta": {"OBJECT_NAME": "COSMOS 2251 DEB", "OBJECT_ID": "1993-036AJN", "EPOCH": "2025-12-13T11:06:52.378272", "MEAN_MOTION": 14.38319567, "ECCENTRICITY": 0.00168278, "INCLINATION": 74.0492, "RA_OF_ASC_NODE": 263.0914, "ARG_OF_PERICENTER": 339.5477, "MEAN_ANOMALY": 143.8848, "EPHEMERIS_TYPE": 0, "CLASSIFICATION_TYPE": "U", "NORAD_CAT_ID": 35284, "ELEMENT_SET_NO": 999, "REV_AT_EPOCH": 65536, "BSTAR": 0.00027227608, "MEAN_MOTION_DOT": 8.04e-06, "MEAN_MOTION_DDOT": 0}, "tle": {"line1": "1 35284U 93036AJN 25347.46310623  .00000804  00000+0  27228-3 0  9994", "line2": "2 35284  74.0492 263.0914 0016827 339.5477 143.8848 14.38319567655365"}}, "geometry": {"type": "Point", "coordinates": [-121.68612903007639, -53.417488111172275]}}]}